     2.10           NAVIGATION DATA                         RINEX VERSION / TYPE
Spider V7.7.2.9082                      2022 05 07 00:21    PGM / RUN BY / DATE 
    1.6764D-08  2.2352D-08 -1.1921D-07 -1.1921D-07          ION ALPHA           
    1.1059D+05  9.8304D+04 -1.3107D+05 -1.9661D+05          ION BETA            
    1.862645149231D-09 9.769962616701D-15    61440     2209 DELTA-UTC: A0,A1,T,W
    18                                                      LEAP SECONDS        
                                                            END OF HEADER       
 1 22 05 05 22 00  0.0 3.694328479469D-04-8.412825991400D-12 0.000000000000D+00
    4.800000000000D+01-7.800000000000D+01 3.927663527747D-09 2.781140060687D+00
   -4.202127456665D-06 1.184637029655D-02 4.544854164124D-06 5.153669120789D+03
    4.248000000000D+05-3.911554813385D-08 2.993873248278D+00-2.086162567139D-07
    9.878781794914D-01 3.055000000000D+02 9.000588868140D-01-7.656747236240D-09
   -1.235765795249D-10 1.000000000000D+00 2.208000000000D+03 0.000000000000D+00
    2.000000000000D+00 0.000000000000D+00 5.122274160385D-09 4.800000000000D+01
    4.175400000000D+05 0.000000000000D+00
 2 22 05 06 00 00  0.0-6.532785482705D-04 0.000000000000D+00 0.000000000000D+00
    5.900000000000D+01-7.271875000000D+01 4.392683106147D-09-2.300992808146D+00
   -3.350898623466D-06 2.045985311270D-02 3.159046173096D-06 5.153660997391D+03
    4.320000000000D+05 1.490116119385D-07 2.902926816063D+00 2.197921276093D-07
    9.660097441947D-01 3.160937500000D+02-1.420841527067D+00-7.839612514715D-09
    4.714481929846D-11 1.000000000000D+00 2.208000000000D+03 0.000000000000D+00
    2.000000000000D+00 0.000000000000D+00-1.769512891769D-08 5.900000000000D+01
    4.247400000000D+05 0.000000000000D+00
 3 22 05 06 00 00  0.0-2.336278557777D-04-1.421085471520D-11 0.000000000000D+00
    1.030000000000D+02-5.881250000000D+01 4.078026805132D-09 2.719055603626D+00
   -3.196299076080D-06 4.119986668229D-03 8.545815944672D-06 5.153637861252D+03
    4.320000000000D+05-4.097819328308D-08-2.255628160310D+00-7.636845111847D-08
    9.735476636651D-01 2.188125000000D+02 9.475566901110D-01-7.648532474036D-09
    1.625067719280D-10 1.000000000000D+00 2.208000000000D+03 0.000000000000D+00
    2.000000000000D+00 0.000000000000D+00 1.862645149231D-09 1.030000000000D+02
    4.247400000000D+05 0.000000000000D+00
 4 22 05 06 00 00  0.0-1.699128188193D-04 3.410605131648D-12 0.000000000000D+00
    1.680000000000D+02-7.843750000000D+00 4.612334958409D-09-7.209846749228D-01
   -5.606561899185D-07 1.796943601221D-03 7.102265954018D-06 5.153616943359D+03
    4.320000000000D+05 2.607703208923D-08-1.173959956236D+00-3.539025783539D-08
    9.609382095164D-01 2.438437500000D+02-2.968504241660D+00-7.943188329307D-09
    8.393206962776D-11 1.000000000000D+00 2.208000000000D+03 0.000000000000D+00
    2.000000000000D+00 0.000000000000D+00-4.656612873077D-09 6.800000000000D+02
    4.247400000000D+05 0.000000000000D+00
 5 22 05 06 00 00  0.0-8.079828694463D-05-1.364242052659D-12 0.000000000000D+00
    1.570000000000D+02-7.093750000000D+01 4.501258921152D-09 2.081511701717D-01
   -3.453344106674D-06 5.958021502011D-03 8.767470717430D-06 5.153718662262D+03
    4.320000000000D+05-2.048909664154D-08-2.297087023146D+00 2.048909664154D-08
    9.605837356883D-01 2.080625000000D+02 1.015547250282D+00-8.036049159443D-09
    1.235765795249D-10 1.000000000000D+00 2.208000000000D+03 0.000000000000D+00
    2.000000000000D+00 0.000000000000D+00-1.117587089539D-08 1.570000000000D+02
    4.247400000000D+05 0.000000000000D+00
 6 22 05 06 00 00  0.0 2.923775464296D-04 1.432454155292D-11 0.000000000000D+00
    7.600000000000D+01-7.490625000000D+01 4.070884074281D-09-2.213910507265D+00
   -3.771856427193D-06 2.603406319395D-03 4.682689905167D-06 5.153719142914D+03
    4.320000000000D+05-4.470348358154D-08 2.985543085522D+00 2.048909664154D-08
    9.872213746243D-01 3.044687500000D+02-8.647091098967D-01-7.836398197014D-09
   -4.464471847765D-11 1.000000000000D+00 2.208000000000D+03 0.000000000000D+00
    2.000000000000D+00 0.000000000000D+00 3.725290298462D-09 7.600000000000D+01
    4.247400000000D+05 0.000000000000D+00
 7 22 05 06 00 00  0.0 3.217239864171D-04 5.684341886081D-13 0.000000000000D+00
    8.000000000000D+00 1.187500000000D+00 4.606620418457D-09-3.122333920781D+00
   -6.519258022308D-08 1.602555287536D-02 7.821246981621D-06 5.153665773392D+03
    4.320000000000D+05 2.421438694000D-08-1.557631989282D-01-2.104789018631D-07
    9.511318673286D-01 2.214687500000D+02-2.271997647467D+00-7.715678762565D-09
   -3.250135438559D-10 1.000000000000D+00 2.208000000000D+03 0.000000000000D+00
    2.000000000000D+00 0.000000000000D+00-1.117587089539D-08 8.000000000000D+00
    4.247400000000D+05 0.000000000000D+00
 8 22 05 05 20 00  0.0-6.677443161607D-05-1.591615728103D-12 0.000000000000D+00
    5.500000000000D+01 5.725000000000D+01 4.641979245434D-09-2.364977667476D+00
    2.838671207428D-06 7.436897489242D-03 3.080815076828D-06 5.153757337570D+03
    4.176000000000D+05-6.705522537231D-08 1.912293182093D+00-1.545995473862D-07
    9.635695602656D-01 3.255312500000D+02 1.624680801791D-01-8.182841071402D-09
    1.421487788589D-10 1.000000000000D+00 2.208000000000D+03 0.000000000000D+00
    2.800000000000D+00 0.000000000000D+00 5.122274160385D-09 5.500000000000D+01
    4.103400000000D+05 0.000000000000D+00
 9 22 05 06 00 00  0.0-3.388975746930D-04 2.728484105319D-12 0.000000000000D+00
    6.600000000000D+01-4.125000000000D+00 4.807342968149D-09 2.391770615646D-01
   -2.793967723846D-07 2.082019229420D-03 7.115304470062D-06 5.153568492889D+03
    4.320000000000D+05-5.029141902924D-08-1.227581923749D+00-2.607703208923D-08
    9.539586463782D-01 2.391250000000D+02 1.874416898839D+00-8.070336399157D-09
    1.353627765432D-10 1.000000000000D+00 2.208000000000D+03 0.000000000000D+00
    2.000000000000D+00 0.000000000000D+00 1.396983861923D-09 6.600000000000D+01
    4.247400000000D+05 0.000000000000D+00
10 22 05 05 20 00  0.0-4.035169258714D-04-1.386979420204D-11 0.000000000000D+00
    8.600000000000D+01-5.753125000000D+01 4.096242012253D-09-3.050073876620D-01
   -3.166496753693D-06 7.576586445794D-03 8.359551429749D-06 5.153685441971D+03
    4.176000000000D+05 2.793967723846D-08-2.258276104939D+00 9.126961231232D-08
    9.733573906880D-01 2.239687500000D+02-2.493684325264D+00-7.868185214477D-09
    6.535986335487D-11 1.000000000000D+00 2.208000000000D+03 0.000000000000D+00
    2.000000000000D+00 0.000000000000D+00 2.328306436539D-09 8.600000000000D+01
    4.103400000000D+05 0.000000000000D+00
11 20 11 10 17 59 44.0-1.123906113207D-04 1.057287590811D-11 0.000000000000D+00
    7.000000000000D+01 4.618750000000D+01 5.453441254133D-09-2.680519908585D-01
    2.257525920868D-06 1.563049887773D-02 9.506940841675D-06 5.153729484558D+03
    2.375840000000D+05-1.825392246246D-07-4.162229858152D-01-2.048909664154D-07
    9.140089342209D-01 1.730625000000D+02 2.066075212508D+00-8.838939358213D-09
    3.621579425239D-10 1.000000000000D+00 2.131000000000D+03 0.000000000000D+00
    2.000000000000D+00 1.000000000000D+00-1.257285475731D-08 7.000000000000D+01
    2.303100000000D+05 1.000000000000D+00
12 22 05 05 11 59 44.0-2.107536420226D-04-5.798028723802D-12 0.000000000000D+00
    5.000000000000D+00 1.055937500000D+02 4.112671092571D-09 2.529618464808D+00
    5.245208740234D-06 8.686296408996D-03 7.975846529007D-06 5.153562864304D+03
    3.887840000000D+05 3.725290298462D-09 9.573180153836D-01-1.657754182816D-07
    9.695605448084D-01 2.238125000000D+02 1.282959501213D+00-7.647461330862D-09
   -2.278666283440D-10 1.000000000000D+00 2.208000000000D+03 0.000000000000D+00
    2.000000000000D+00 0.000000000000D+00-1.257285475731D-08 5.000000000000D+00
    3.815100000000D+05 0.000000000000D+00
13 22 05 05 16 00  0.0 3.062118776143D-04 6.707523425575D-12 0.000000000000D+00
    9.700000000000D+01-3.218750000000D+00 4.508045048368D-09 1.380328098446D+00
   -2.328306436539D-07 5.883486592211D-03 6.468966603279D-06 5.153669630051D+03
    4.032000000000D+05-1.080334186554D-07-1.073175740797D+00 3.352761268616D-08
    9.683614698564D-01 2.573437500000D+02 9.224520620482D-01-7.998547602028D-09
    2.253665309926D-10 1.000000000000D+00 2.208000000000D+03 0.000000000000D+00
    2.000000000000D+00 0.000000000000D+00-1.164153218269D-08 9.700000000000D+01
    3.959400000000D+05 0.000000000000D+00
14 22 05 05 20 00  0.0-1.068045385182D-04-2.046363078989D-12 0.000000000000D+00
    2.070000000000D+02 8.918750000000D+01 4.505187778392D-09 4.522246404915D-01
    4.641711711884D-06 1.816175528802D-03 8.316710591316D-06 5.153662664413D+03
    4.176000000000D+05 1.490116119385D-08 9.245396256664D-01-7.450580596924D-09
    9.529812751981D-01 2.158437500000D+02 3.075886473647D+00-7.946045599283D-09
   -5.571660494086D-11 1.000000000000D+00 2.208000000000D+03 0.000000000000D+00
    2.000000000000D+00 0.000000000000D+00-7.916241884232D-09 2.070000000000D+02
    4.103400000000D+05 0.000000000000D+00
15 22 05 05 16 00  0.0-6.360840052366D-05 2.955857780762D-12 0.000000000000D+00
    1.400000000000D+01 1.250000000000D-01 5.371652456176D-09 8.615099494388D-01
    4.842877388000D-08 1.401801779866D-02 7.051974534988D-06 5.153775049210D+03
    4.032000000000D+05-2.142041921616D-07-1.335532645701D+00-1.117587089539D-08
    9.298453808439D-01 2.309687500000D+02 1.089360653044D+00-8.549641883349D-09
    2.225092748942D-10 1.000000000000D+00 2.208000000000D+03 0.000000000000D+00
    2.000000000000D+00 0.000000000000D+00-1.071020960808D-08 1.400000000000D+01
    3.959400000000D+05 0.000000000000D+00
